[{"OBJECT_NAME":"ONEWEB-0627","OBJECT_ID":"2023-004AE","EPOCH":"2026-03-09T21:20:44.660256","MEAN_MOTION":13.17650419,"ECCENTRICITY":0.00016573,"INCLINATION":87.9149,"RA_OF_ASC_NODE":25.5931,"ARG_OF_PERICENTER":63.7722,"MEAN_ANOMALY":296.358,"EPHEMERIS_TYPE":0,"CLASSIFICATION_TYPE":"U","NORAD_CAT_ID":55168,"ELEMENT_SET_NO":999,"REV_AT_EPOCH":15450,"BSTAR":-4.5827799e-5,"MEAN_MOTION_DOT":-5.0e-8,"MEAN_MOTION_DDOT":0},{"OBJECT_NAME":"SL-14 DEB","OBJECT_ID":"1991-056F","EPOCH":"2026-03-09T20:22:57.602784","MEAN_MOTION":13.20590429,"ECCENTRICITY":0.00257751,"INCLINATION":82.5768,"RA_OF_ASC_NODE":204.0608,"ARG_OF_PERICENTER":314.9315,"MEAN_ANOMALY":44.9718,"EPHEMERIS_TYPE":0,"CLASSIFICATION_TYPE":"U","NORAD_CAT_ID":45269,"ELEMENT_SET_NO":999,"REV_AT_EPOCH":29259,"BSTAR":0.00017993766,"MEAN_MOTION_DOT":8.5e-7,"MEAN_MOTION_DDOT":0}]
